{
  "type": "FeatureCollection",
  "features": [
    {
      "type": "Feature",
      "properties": {
        "norad_id": 65729,
        "name": "DRAGONFLY",
        "group": "stations",
        "lat": -51.05331288199071,
        "lon": 98.79405674829515,
        "alt_km": 364.5112793705348,
        "timestamp": "2025-12-04T13:51:59.246673+00:00",
        "meta_object_name": "DRAGONFLY",
        "meta_object_id": "1998-067XH",
        "meta_epoch": "2025-12-04T01:59:13.244352",
        "meta_mean_motion": 15.68505337,
        "meta_eccentricity": 0.00065465,
        "meta_inclination": 51.6245,
        "meta_ra_of_asc_node": 179.979,
        "meta_arg_of_pericenter": 222.4541,
        "meta_mean_anomaly": 137.595,
        "meta_ephemeris_type": 0,
        "meta_classification_type": "U",
        "meta_norad_cat_id": 65729,
        "meta_element_set_no": 999,
        "meta_rev_at_epoch": 1180,
        "meta_bstar": 0.001745531,
        "meta_mean_motion_dot": 0.00206221,
        "meta_mean_motion_ddot": 0,
        "tle_line1": "1 65729U 98067XH  25338.08279218  .00206221  00000+0  17455-2 0  9993",
        "tle_line2": "2 65729  51.6245 179.9790 0006546 222.4541 137.5950 15.68505337 11800"
      },
      "geometry": {
        "type": "Point",
        "coordinates": [
          98.79405674829515,
          -51.05331288199071
        ]
      }
    },
    {
      "type": "Feature",
      "properties": {
        "norad_id": 65730,
        "name": "1998-067XJ",
        "group": "stations",
        "lat": -48.37661576980402,
        "lon": 53.79672619048812,
        "alt_km": 153.26825230309896,
        "timestamp": "2025-12-04T13:51:59.246685+00:00",
        "meta_object_name": "1998-067XJ",
        "meta_object_id": "1998-067XJ",
        "meta_epoch": "2025-12-02T19:46:01.269984",
        "meta_mean_motion": 16.23931094,
        "meta_eccentricity": 0.00101147,
        "meta_inclination": 51.6061,
        "meta_ra_of_asc_node": 180.4655,
        "meta_arg_of_pericenter": 256.3912,
        "meta_mean_anomaly": 103.5981,
        "meta_ephemeris_type": 0,
        "meta_classification_type": "U",
        "meta_norad_cat_id": 65730,
        "meta_element_set_no": 999,
        "meta_rev_at_epoch": 1168,
        "meta_bstar": 0.002285911,
        "meta_mean_motion_dot": 0.06330363,
        "meta_mean_motion_ddot": 1.1931217e-05,
        "tle_line1": "1 65730U 98067XJ  25336.82362581  .06330363  11931-4  22859-2 0  9996",
        "tle_line2": "2 65730  51.6061 180.4655 0010114 256.3912 103.5981 16.23931094 11687"
      },
      "geometry": {
        "type": "Point",
        "coordinates": [
          53.79672619048812,
          -48.37661576980402
        ]
      }
    },
    {
      "type": "Feature",
      "properties": {
        "norad_id": 65731,
        "name": "1998-067XK",
        "group": "stations",
        "lat": 49.67589600227174,
        "lon": -70.41354197660486,
        "alt_km": 370.1259657953833,
        "timestamp": "2025-12-04T13:51:59.246695+00:00",
        "meta_object_name": "1998-067XK",
        "meta_object_id": "1998-067XK",
        "meta_epoch": "2025-12-03T20:33:14.862528",
        "meta_mean_motion": 15.63596152,
        "meta_eccentricity": 0.00059045,
        "meta_inclination": 51.628,
        "meta_ra_of_asc_node": 182.229,
        "meta_arg_of_pericenter": 193.4783,
        "meta_mean_anomaly": 166.6055,
        "meta_ephemeris_type": 0,
        "meta_classification_type": "U",
        "meta_norad_cat_id": 65731,
        "meta_element_set_no": 999,
        "meta_rev_at_epoch": 1175,
        "meta_bstar": 0.0013142835,
        "meta_mean_motion_dot": 0.00126041,
        "meta_mean_motion_ddot": 0,
        "tle_line1": "1 65731U 98067XK  25337.85642202  .00126041  00000+0  13143-2 0  9998",
        "tle_line2": "2 65731  51.6280 182.2290 0005904 193.4783 166.6055 15.63596152 11759"
      },
      "geometry": {
        "type": "Point",
        "coordinates": [
          -70.41354197660486,
          49.67589600227174
        ]
      }
    },
    {
      "type": "Feature",
      "properties": {
        "norad_id": 65732,
        "name": "RSP-03",
        "group": "stations",
        "lat": -0.22723659178735992,
        "lon": 177.8578506141298,
        "alt_km": 375.1119196266227,
        "timestamp": "2025-12-04T13:51:59.246706+00:00",
        "meta_object_name": "RSP-03",
        "meta_object_id": "1998-067XL",
        "meta_epoch": "2025-12-03T22:33:08.047872",
        "meta_mean_motion": 15.65891812,
        "meta_eccentricity": 0.00067144,
        "meta_inclination": 51.6257,
        "meta_ra_of_asc_node": 181.2782,
        "meta_arg_of_pericenter": 196.8829,
        "meta_mean_anomaly": 163.1944,
        "meta_ephemeris_type": 0,
        "meta_classification_type": "U",
        "meta_norad_cat_id": 65732,
        "meta_element_set_no": 999,
        "meta_rev_at_epoch": 1178,
        "meta_bstar": 0.0015088651,
        "meta_mean_motion_dot": 0.00159324,
        "meta_mean_motion_ddot": 0,
        "tle_line1": "1 65732U 98067XL  25337.93967648  .00159324  00000+0  15089-2 0  9993",
        "tle_line2": "2 65732  51.6257 181.2782 0006714 196.8829 163.1944 15.65891812 11782"
      },
      "geometry": {
        "type": "Point",
        "coordinates": [
          177.8578506141298,
          -0.22723659178735992
        ]
      }
    },
    {
      "type": "Feature",
      "properties": {
        "norad_id": 65733,
        "name": "GHS-01",
        "group": "stations",
        "lat": 44.08455017313988,
        "lon": -53.084003039482155,
        "alt_km": 351.8929827800439,
        "timestamp": "2025-12-04T13:51:59.246716+00:00",
        "meta_object_name": "GHS-01",
        "meta_object_id": "1998-067XM",
        "meta_epoch": "2025-12-03T22:05:54.332736",
        "meta_mean_motion": 15.70494881,
        "meta_eccentricity": 0.0007009,
        "meta_inclination": 51.6271,
        "meta_ra_of_asc_node": 180.4028,
        "meta_arg_of_pericenter": 220.9221,
        "meta_mean_anomaly": 139.1251,
        "meta_ephemeris_type": 0,
        "meta_classification_type": "U",
        "meta_norad_cat_id": 65733,
        "meta_element_set_no": 999,
        "meta_rev_at_epoch": 1179,
        "meta_bstar": 0.001848703,
        "meta_mean_motion_dot": 0.00238165,
        "meta_mean_motion_ddot": 0,
        "tle_line1": "1 65733U 98067XM  25337.92076774  .00238165  00000+0  18487-2 0  9990",
        "tle_line2": "2 65733  51.6271 180.4028 0007009 220.9221 139.1251 15.70494881 11792"
      },
      "geometry": {
        "type": "Point",
        "coordinates": [
          -53.084003039482155,
          44.08455017313988
        ]
      }
    },
    {
      "type": "Feature",
      "properties": {
        "norad_id": 65941,
        "name": "YOTSUBA-KULOVER",
        "group": "stations",
        "lat": 30.92464839578578,
        "lon": -150.70581360785505,
        "alt_km": 390.489562842803,
        "timestamp": "2025-12-04T13:51:59.246726+00:00",
        "meta_object_name": "YOTSUBA-KULOVER",
        "meta_object_id": "1998-067XN",
        "meta_epoch": "2025-12-03T20:45:26.565984",
        "meta_mean_motion": 15.57896087,
        "meta_eccentricity": 0.00021831,
        "meta_inclination": 51.628,
        "meta_ra_of_asc_node": 184.5321,
        "meta_arg_of_pericenter": 175.1135,
        "meta_mean_anomaly": 184.9878,
        "meta_ephemeris_type": 0,
        "meta_classification_type": "U",
        "meta_norad_cat_id": 65941,
        "meta_element_set_no": 999,
        "meta_rev_at_epoch": 847,
        "meta_bstar": 0.0012114589,
        "meta_mean_motion_dot": 0.00092779,
        "meta_mean_motion_ddot": 0,
        "tle_line1": "1 65941U 98067XN  25337.86489081  .00092779  00000+0  12115-2 0  9994",
        "tle_line2": "2 65941  51.6280 184.5321 0002183 175.1135 184.9878 15.57896087  8470"
      },
      "geometry": {
        "type": "Point",
        "coordinates": [
          -150.70581360785505,
          30.92464839578578
        ]
      }
    },
    {
      "type": "Feature",
      "properties": {
        "norad_id": 65942,
        "name": "BOTAN",
        "group": "stations",
        "lat": -50.51734718397201,
        "lon": 106.34222844580327,
        "alt_km": 390.5257819248718,
        "timestamp": "2025-12-04T13:51:59.246737+00:00",
        "meta_object_name": "BOTAN",
        "meta_object_id": "1998-067XP",
        "meta_epoch": "2025-12-04T06:31:29.212032",
        "meta_mean_motion": 15.60670487,
        "meta_eccentricity": 0.00041989,
        "meta_inclination": 51.6276,
        "meta_ra_of_asc_node": 182.0008,
        "meta_arg_of_pericenter": 178.1888,
        "meta_mean_anomaly": 181.9121,
        "meta_ephemeris_type": 0,
        "meta_classification_type": "U",
        "meta_norad_cat_id": 65942,
        "meta_element_set_no": 999,
        "meta_rev_at_epoch": 854,
        "meta_bstar": 0.0018696572,
        "meta_mean_motion_dot": 0.00160832,
        "meta_mean_motion_ddot": 0,
        "tle_line1": "1 65942U 98067XP  25338.27186588  .00160832  00000+0  18697-2 0  9994",
        "tle_line2": "2 65942  51.6276 182.0008 0004198 178.1888 181.9121 15.60670487  8541"
      },
      "geometry": {
        "type": "Point",
        "coordinates": [
          106.34222844580327,
          -50.51734718397201
        ]
      }
    }
  ]
}